[{"line1":"1 28522U 05002B   22221.43496355  .00000130  00000-0  92741-4 0  9995","line2":"2 28522  82.9480  10.6076 0044311 299.1870  60.4865 13.89650935890040"},{"line1":"1 28523U 05002C   22221.20158386  .00000092  00000-0  63809-4 0  9990","line2":"2 28523  82.9491  30.3686 0038720  34.8454 325.5233 13.87587164888657"},{"line1":"1 28524U 81038F   20215.15024547 +.00011148 +10339-5 +58722-3 0  9992","line2":"2 28524 063.0434 055.0543 6867247 264.5998 020.2772 02.85722297011295"},{"line1":"1 28526U 05003A   22221.37786291 -.00000261  00000-0  00000-0 0  9993","line2":"2 28526   2.9120  86.8068 0003040  38.8281 290.7719  1.00269903 39032"},{"line1":"1 28527U 05003B   22221.09290825 -.00000138  00000-0  00000+0 0  9998","line2":"2 28527  18.6070 130.8868 5431947 311.7029 300.3932  1.93172425123570"},{"line1":"1 28528U 05003C   22221.02505656  .00006289  00000-0  80684-3 0  9995","line2":"2 28528  49.5279 222.5833 5141023 286.4298  24.7737  5.40575428334711"},{"line1":"1 28542U 05005A   22221.03756520  .00000144  00000-0  00000-0 0  9997","line2":"2 28542   0.7060  94.1682 0003230  39.5541 226.2961  1.00271740 64078"},{"line1":"1 28544U 05005C   22220.38290267  .00006177  00000-0  13347-2 0  9999","line2":"2 28544   7.1974 329.1284 7075416 353.2091   0.7536  2.54834572154118"},{"line1":"1 28545U 05005D   22220.63058886  .00004914  00000-0  79892-3 0  9992","line2":"2 28545   7.3903   1.5644 7102846 287.2178  11.2439  2.52039479152167"},{"line1":"1 28546U 04050B   22221.30744163 -.00000124  00000-0  00000-0 0  9999","line2":"2 28546  17.1709 357.5487 2569218 260.9177  89.8851  1.37842107 88699"},{"line1":"1 28550U 65108BR  17232.09809194 -.00000200  00000-0 -29050-3 0  9998","line2":"2 28550  26.6700 147.1252 6697973 196.1316 349.3802  2.75211190147839"},{"line1":"1 28551U 65108BS  22220.16374907  .00002101  00000-0  65962-2 0  9990","line2":"2 28551  27.1275  77.2191 6088900 214.5539  84.0826  3.72051423  3035"},{"line1":"1 28553U 65108BU  22220.28235068  .00000224  00000-0  30440-2 0  9996","line2":"2 28553  26.6918  64.3033 6786562 125.2449   6.0094  2.72138517182683"},{"line1":"1 28554U 79095C   22220.93091230  .00003318  00000-0  10288-2 0  9995","line2":"2 28554  81.1927 294.5380 0029448   3.6437 356.4959 14.40739584407776"},{"line1":"1 28555U 79095D   22218.54005521  .00003367  00000-0  11046-2 0  9995","line2":"2 28555  81.1981 306.9573 0019982 131.1133 229.1782 14.38092888 41513"},{"line1":"1 28556U 79104V   22214.44158556 -.00000118  00000-0  72879-2 0  9992","line2":"2 28556  16.0444 298.1991 7314214  15.4426   7.9430  1.95559131 67667"},{"line1":"1 28557U 79104W   22215.01394763 -.00000045  00000-0 -15850-2 0  9995","line2":"2 28557  19.4770  72.2234 7405073 170.1955 358.1365  1.97267642  3739"},{"line1":"1 28562U 88040F   22220.08889525  .00000270  00000-0  25252-2 0  9993","line2":"2 28562   7.7935  84.1588 7064228 283.3091  12.2519  2.41259722168510"},{"line1":"1 28563U 88098L   22216.17209545 -.00000053  00000-0  19086-1 0  9997","line2":"2 28563   3.3565 197.4038 7198892 155.9613 354.3453  2.06995524145935"},{"line1":"1 28564U 89006AF  22197.45246236 -.00000001  00000-0  26079-2 0  9999","line2":"2 28564   7.8994 185.3171 7093144 247.8199 352.2052  2.24732165  6645"},{"line1":"1 28565U 89006AG  22220.92847430  .00000531  00000-0  22885-2 0  9990","line2":"2 28565   7.7644 160.4192 7131813 286.6555  11.1594  2.35761536157114"},{"line1":"1 28566U 89006AH  22221.42731194  .00001028  00000-0  31064-1 0  9996","line2":"2 28566   7.4550 357.2282 7088545 273.6508  15.2173  2.27888903 80326"},{"line1":"1 28567U 89006AJ  22221.02605161  .00000452  00000-0  21253-2 0  9997","line2":"2 28567   7.2161 178.6081 7134808 257.7321  20.7798  2.34638689 87160"},{"line1":"1 28569U 89006AL  22072.25753622 -.00000239  00000-0 -40263-2 0  9991","line2":"2 28569   8.4572  11.3778 7112464 234.5482 334.3261  2.29177888150895"},{"line1":"1 28570U 89006AM  22218.62300313 -.00000250  00000-0 -19540-2 0  9998","line2":"2 28570   7.6864 324.7007 7112608 337.5166  27.9120  2.28487769157393"},{"line1":"1 28573U 91003N   22221.27288775 -.00000164  00000-0 -54447-3 0  9993","line2":"2 28573   7.1723  91.9968 6826283  29.2857 191.8303  2.64609269183604"},{"line1":"1 28574U 91003P   22221.06050938  .00000276  00000-0  52310-3 0  9998","line2":"2 28574   6.3854 139.8577 6639602 291.5208  12.7821  2.99061896 97257"},{"line1":"1 28575U 91075M   22221.36061000  .00000036  00000-0  30445-2 0  9991","line2":"2 28575   6.3028 318.1881 6613814 154.4625 275.2052  2.82719721210649"},{"line1":"1 28576U 91075N   22221.48265323 -.00000101  00000-0  46853-3 0  9994","line2":"2 28576   6.9107 284.3744 6605660 220.3473 283.0620  2.83716833213597"},{"line1":"1 28577U 92021R   22220.61321251 -.00000097  00000-0  00000+0 0  9998","line2":"2 28577   3.1328 227.1969 6990157  61.7467  28.7630  2.23218469146231"},{"line1":"1 28582U 92047R   19032.25485345 -.00000009  00000-0  00000+0 0  9997","line2":"2 28582  64.3795 337.9264 3636205 177.3331 185.4451  6.44629071332505"},{"line1":"1 28583U 92047S   21034.39131492 -.00000016  00000-0  00000+0 0  9997","line2":"2 28583  63.6353  37.0500 3749133 146.0175 244.9970  5.88834793280047"},{"line1":"1 28584U 92047T   22221.44200120  .00008018  00000-0  14595-1 0  9993","line2":"2 28584  64.8617 197.2463 4244449 120.2629 288.4891  6.55890966177904"},{"line1":"1 28589U 92047Y   22098.10562563  .03400750  00000-0  63366+0 0  9995","line2":"2 28589  66.7717  37.4779 4544540  50.2842 341.7528  6.37266471  6998"},{"line1":"1 28591U 74015C   22221.46785976  .00000101  00000-0  67514-4 0  9992","line2":"2 28591  99.1095  78.7441 0046668 186.8667 293.5693 14.21104811909810"},{"line1":"1 28592U 74015D   22221.41299292  .00010365  00000-0  13419-2 0  9995","line2":"2 28592  99.0515  97.5082 0060389 188.7194 171.2970 14.79796146932041"},{"line1":"1 28593U 74015E   22221.30790337  .00000628  00000-0  24248-3 0  9994","line2":"2 28593  99.0335 171.7929 0062360 276.8242  82.5848 14.32893633913103"},{"line1":"1 28594U 79095E   22220.90953678  .00001696  00000-0  67483-3 0  9996","line2":"2 28594  81.1953  41.2556 0018664   8.2009 351.9473 14.28206393931232"},{"line1":"1 28595U 79095F   22220.54733304  .00004892  00000-0  13354-2 0  9997","line2":"2 28595  81.1819 306.0412 0012843  98.8288 261.4358 14.47174740939634"},{"line1":"1 28596U 79095G   22122.84472174  .00014305  00000-0  28928-2 0  9990","line2":"2 28596  81.1903 316.8597 0010222 246.5354 113.4770 14.61243313  8288"},{"line1":"1 28597U 81043G   22221.69493339  .00002876  00000-0  93666-3 0  9998","line2":"2 28597  81.2577 211.7236 0036140  21.8522 338.4195 14.38166923998146"},{"line1":"1 28598U 82116E   22205.38147040  .00009302  00000-0  18263-2 0  9994","line2":"2 28598  81.2282  88.9880 0020130 189.3755 170.7072 14.62491401 48864"},{"line1":"1 28599U 81043H   22219.91072465  .00001809  00000-0  43394-3 0  9993","line2":"2 28599  81.2422  81.1666 0028903 170.0417 190.1357 14.52881247439277"},{"line1":"1 28600U 81043J   22219.81321221  .00006091  00000-0  12743-2 0  9993","line2":"2 28600  81.2387  44.3207 0012038 310.5424  49.4725 14.59667327479214"},{"line1":"1 28601U 81043K   22217.28974846  .00002735  00000-0  82383-3 0  9999","line2":"2 28601  81.2591 210.4051 0038224  11.2317 348.9715 14.41939835957524"},{"line1":"1 28602U 81043L   22218.26282987  .00001911  00000-0  61343-3 0  9995","line2":"2 28602  81.2597 221.6775 0045978  39.8374 320.6173 14.38521910948310"},{"line1":"1 28603U 85013C   22220.94603165  .00002038  00000-0  13463-2 0  9990","line2":"2 28603  82.5205 297.6747 0026063  18.8110 341.4016 14.01054104463643"},{"line1":"1 28608U 68055M   22221.38788769 -.00000010  00000-0  00000-0 0  9995","line2":"2 28608 120.8415 143.0910 0018803  92.7411  52.3358  6.42247759206256"},{"line1":"1 28609U 66040Y   22221.36171295  .00000869  00000-0  15335-2 0  9996","line2":"2 28609 100.4135  65.0825 0054052 123.1631  53.0003 13.45479517445516"},{"line1":"1 28610U 66040Z   22219.68175775  .00004590  00000-0  66550-2 0  9997","line2":"2 28610 100.4902 195.2881 0079827 352.5262 184.0497 13.54473249435431"},{"line1":"1 28611U 66040AA  22207.34093790  .00002985  00000-0  20448-2 0  9996","line2":"2 28611 100.1285  29.7065 0046457  44.7266 315.7626 14.00007582941327"},{"line1":"1 28612U 66040AB  22221.11558135  .00001336  00000-0  16866-2 0  9995","line2":"2 28612 100.4093 330.1613 0039568 340.7159 143.3057 13.65665982507270"},{"line1":"1 28613U 66040AC  22220.58686885  .00001152  00000-0  15750-2 0  9997","line2":"2 28613 100.3635 260.6321 0051139 112.8000  41.8529 13.60836476450979"},{"line1":"1 28615U 66040AE  22221.31619068  .00002762  00000-0  30510-2 0  9999","line2":"2 28615 100.2478 231.7694 0042577 162.8222 211.8908 13.72484378411974"},{"line1":"1 28617U 66040AG  22221.02208689  .00001455  00000-0  18163-2 0  9990","line2":"2 28617 100.4524 309.8964 0052436 350.8972 185.1932 13.65917636  1765"},{"line1":"1 28618U 66040AH  22221.33067213  .00002703  00000-0  29027-2 0  9999","line2":"2 28618 100.2559 252.2568 0052929 143.7758 230.5772 13.73990233454606"},{"line1":"1 28619U 66040AJ  22221.05420230  .00001786  00000-0  20855-2 0  9991","line2":"2 28619 100.3025 259.2207 0042685 227.1953 157.6175 13.69740521390811"},{"line1":"1 28620U 66040AK  22221.31530812  .00001240  00000-0  21428-2 0  9992","line2":"2 28620 100.3968  53.1881 0054198 157.2644  18.9752 13.45812120861935"},{"line1":"1 28621U 66040AM  22220.31969145  .00003175  00000-0  23223-2 0  9991","line2":"2 28621 100.2614 235.7803 0037252  78.7594 281.7747 13.96475078517955"},{"line1":"1 28622U 05006A   22221.52341104 -.00000151  00000-0  00000-0 0  9998","line2":"2 28622   5.9938  71.7718 0011134 277.4598 268.1848  0.98912231 30093"},{"line1":"1 28626U 05008A   22221.44709600 -.00000213  00000-0  00000-0 0  9993","line2":"2 28626   0.0324 222.0531 0001661 310.7803 220.9252  1.00268718 28506"}]